{
  "type": "FeatureCollection",
  "features": [
    {
      "type": "Feature",
      "properties": {
        "norad_id": 33913,
        "name": "COSMOS 2251 DEB",
        "group": "cosmos-2251-debris",
        "lat": -10.92386293407161,
        "lon": -178.036510323752,
        "alt_km": 717.801265017687,
        "timestamp": "2025-12-11T22:43:47.663536+00:00",
        "meta_object_name": "COSMOS 2251 DEB",
        "meta_object_id": "1993-036DS",
        "meta_epoch": "2025-12-11T00:17:35.719008",
        "meta_mean_motion": 14.48474621,
        "meta_eccentricity": 0.00481713,
        "meta_inclination": 74.0334,
        "meta_ra_of_asc_node": 186.8819,
        "meta_arg_of_pericenter": 289.7669,
        "meta_mean_anomaly": 225.6348,
        "meta_ephemeris_type": 0,
        "meta_classification_type": "U",
        "meta_norad_cat_id": 33913,
        "meta_element_set_no": 999,
        "meta_rev_at_epoch": 88432,
        "meta_bstar": 0.00075304879,
        "meta_mean_motion_dot": 2.839e-05,
        "meta_mean_motion_ddot": 0,
        "tle_line1": "1 33913U 93036DS  25345.01221897  .00002839  00000+0  75305-3 0  9993",
        "tle_line2": "2 33913  74.0334 186.8819 0048171 289.7669 225.6348 14.48474621884327"
      },
      "geometry": {
        "type": "Point",
        "coordinates": [
          -178.036510323752,
          -10.92386293407161
        ]
      }
    },
    {
      "type": "Feature",
      "properties": {
        "norad_id": 33914,
        "name": "COSMOS 2251 DEB",
        "group": "cosmos-2251-debris",
        "lat": 4.139194590027794,
        "lon": -164.7810876893904,
        "alt_km": 865.5476267549884,
        "timestamp": "2025-12-11T22:43:47.663548+00:00",
        "meta_object_name": "COSMOS 2251 DEB",
        "meta_object_id": "1993-036DT",
        "meta_epoch": "2025-12-11T11:55:53.630400",
        "meta_mean_motion": 13.7198412,
        "meta_eccentricity": 0.03012695,
        "meta_inclination": 74.0915,
        "meta_ra_of_asc_node": 17.1427,
        "meta_arg_of_pericenter": 120.4854,
        "meta_mean_anomaly": 350.8465,
        "meta_ephemeris_type": 0,
        "meta_classification_type": "U",
        "meta_norad_cat_id": 33914,
        "meta_element_set_no": 999,
        "meta_rev_at_epoch": 84064,
        "meta_bstar": 0.00060061615,
        "meta_mean_motion_dot": 7.34e-06,
        "meta_mean_motion_ddot": 0,
        "tle_line1": "1 33914U 93036DT  25345.49714850  .00000734  00000+0  60062-3 0  9998",
        "tle_line2": "2 33914  74.0915  17.1427 0301269 120.4854 350.8465 13.71984120840644"
      },
      "geometry": {
        "type": "Point",
        "coordinates": [
          -164.7810876893904,
          4.139194590027794
        ]
      }
    },
    {
      "type": "Feature",
      "properties": {
        "norad_id": 33915,
        "name": "COSMOS 2251 DEB",
        "group": "cosmos-2251-debris",
        "lat": 61.36770500034949,
        "lon": -176.04295132565417,
        "alt_km": 696.0171667237591,
        "timestamp": "2025-12-11T22:43:47.663558+00:00",
        "meta_object_name": "COSMOS 2251 DEB",
        "meta_object_id": "1993-036DU",
        "meta_epoch": "2025-12-11T12:42:43.221888",
        "meta_mean_motion": 14.35079894,
        "meta_eccentricity": 0.01044468,
        "meta_inclination": 74.0443,
        "meta_ra_of_asc_node": 36.3246,
        "meta_arg_of_pericenter": 129.2064,
        "meta_mean_anomaly": 349.5238,
        "meta_ephemeris_type": 0,
        "meta_classification_type": "U",
        "meta_norad_cat_id": 33915,
        "meta_element_set_no": 999,
        "meta_rev_at_epoch": 87740,
        "meta_bstar": 0.00066763148,
        "meta_mean_motion_dot": 2e-05,
        "meta_mean_motion_ddot": 0,
        "tle_line1": "1 33915U 93036DU  25345.52966692  .00002000  00000+0  66763-3 0  9998",
        "tle_line2": "2 33915  74.0443  36.3246 0104446 129.2064 349.5238 14.35079894877402"
      },
      "geometry": {
        "type": "Point",
        "coordinates": [
          -176.04295132565417,
          61.36770500034949
        ]
      }
    },
    {
      "type": "Feature",
      "properties": {
        "norad_id": 33916,
        "name": "COSMOS 2251 DEB",
        "group": "cosmos-2251-debris",
        "lat": 73.36691546626531,
        "lon": 115.0441548617029,
        "alt_km": 1143.3717642386391,
        "timestamp": "2025-12-11T22:43:47.663569+00:00",
        "meta_object_name": "COSMOS 2251 DEB",
        "meta_object_id": "1993-036DV",
        "meta_epoch": "2025-12-11T14:16:47.156736",
        "meta_mean_motion": 13.68611933,
        "meta_eccentricity": 0.03253612,
        "meta_inclination": 74.0529,
        "meta_ra_of_asc_node": 42.4696,
        "meta_arg_of_pericenter": 214.853,
        "meta_mean_anomaly": 299.2529,
        "meta_ephemeris_type": 0,
        "meta_classification_type": "U",
        "meta_norad_cat_id": 33916,
        "meta_element_set_no": 999,
        "meta_rev_at_epoch": 83875,
        "meta_bstar": 0.00068191771,
        "meta_mean_motion_dot": 8.24e-06,
        "meta_mean_motion_ddot": 0,
        "tle_line1": "1 33916U 93036DV  25345.59499024  .00000824  00000+0  68192-3 0  9996",
        "tle_line2": "2 33916  74.0529  42.4696 0325361 214.8530 299.2529 13.68611933838755"
      },
      "geometry": {
        "type": "Point",
        "coordinates": [
          115.0441548617029,
          73.36691546626531
        ]
      }
    },
    {
      "type": "Feature",
      "properties": {
        "norad_id": 33917,
        "name": "COSMOS 2251 DEB",
        "group": "cosmos-2251-debris",
        "lat": 20.467279387009235,
        "lon": -62.41067079810449,
        "alt_km": 896.2186857063689,
        "timestamp": "2025-12-11T22:43:47.663580+00:00",
        "meta_object_name": "COSMOS 2251 DEB",
        "meta_object_id": "1993-036DW",
        "meta_epoch": "2025-12-11T11:24:28.970784",
        "meta_mean_motion": 13.6935628,
        "meta_eccentricity": 0.03312535,
        "meta_inclination": 74.1069,
        "meta_ra_of_asc_node": 124.4666,
        "meta_arg_of_pericenter": 225.6988,
        "meta_mean_anomaly": 131.6529,
        "meta_ephemeris_type": 0,
        "meta_classification_type": "U",
        "meta_norad_cat_id": 33917,
        "meta_element_set_no": 999,
        "meta_rev_at_epoch": 83716,
        "meta_bstar": 0.0011237511,
        "meta_mean_motion_dot": 1.412e-05,
        "meta_mean_motion_ddot": 0,
        "tle_line1": "1 33917U 93036DW  25345.47533531  .00001412  00000+0  11238-2 0  9998",
        "tle_line2": "2 33917  74.1069 124.4666 0331253 225.6988 131.6529 13.69356280837163"
      },
      "geometry": {
        "type": "Point",
        "coordinates": [
          -62.41067079810449,
          20.467279387009235
        ]
      }
    },
    {
      "type": "Feature",
      "properties": {
        "norad_id": 33920,
        "name": "COSMOS 2251 DEB",
        "group": "cosmos-2251-debris",
        "lat": -9.005254418661371,
        "lon": -62.65977367527952,
        "alt_km": 683.12474077162,
        "timestamp": "2025-12-11T22:43:47.663590+00:00",
        "meta_object_name": "COSMOS 2251 DEB",
        "meta_object_id": "1993-036DZ",
        "meta_epoch": "2025-12-09T21:22:37.466688",
        "meta_mean_motion": 14.58191466,
        "meta_eccentricity": 0.00383772,
        "meta_inclination": 74.0619,
        "meta_ra_of_asc_node": 303.8409,
        "meta_arg_of_pericenter": 310.7658,
        "meta_mean_anomaly": 49.0178,
        "meta_ephemeris_type": 0,
        "meta_classification_type": "U",
        "meta_norad_cat_id": 33920,
        "meta_element_set_no": 999,
        "meta_rev_at_epoch": 88073,
        "meta_bstar": 0.0030275677,
        "meta_mean_motion_dot": 0.0001411,
        "meta_mean_motion_ddot": 0,
        "tle_line1": "1 33920U 93036DZ  25343.89071142  .00014110  00000+0  30276-2 0  9993",
        "tle_line2": "2 33920  74.0619 303.8409 0038377 310.7658  49.0178 14.58191466880731"
      },
      "geometry": {
        "type": "Point",
        "coordinates": [
          -62.65977367527952,
          -9.005254418661371
        ]
      }
    },
    {
      "type": "Feature",
      "properties": {
        "norad_id": 33922,
        "name": "COSMOS 2251 DEB",
        "group": "cosmos-2251-debris",
        "lat": 21.861773538373217,
        "lon": -37.34075719062688,
        "alt_km": 730.3071240130012,
        "timestamp": "2025-12-11T22:43:47.663601+00:00",
        "meta_object_name": "COSMOS 2251 DEB",
        "meta_object_id": "1993-036EB",
        "meta_epoch": "2025-12-11T12:19:31.694592",
        "meta_mean_motion": 14.49500634,
        "meta_eccentricity": 0.0023259,
        "meta_inclination": 74.0466,
        "meta_ra_of_asc_node": 150.0622,
        "meta_arg_of_pericenter": 260.8201,
        "meta_mean_anomaly": 155.2847,
        "meta_ephemeris_type": 0,
        "meta_classification_type": "U",
        "meta_norad_cat_id": 33922,
        "meta_element_set_no": 999,
        "meta_rev_at_epoch": 88560,
        "meta_bstar": 0.00079589677,
        "meta_mean_motion_dot": 3.034e-05,
        "meta_mean_motion_ddot": 0,
        "tle_line1": "1 33922U 93036EB  25345.51356128  .00003034  00000+0  79590-3 0  9992",
        "tle_line2": "2 33922  74.0466 150.0622 0023259 260.8201 155.2847 14.49500634885609"
      },
      "geometry": {
        "type": "Point",
        "coordinates": [
          -37.34075719062688,
          21.861773538373217
        ]
      }
    }
  ]
}